SENTINEL-2A             
1 40697U 15028A   26190.80209569 -.00000053  00000+0 -36981-5 0  9990
2 40697  98.5675 265.3321 0001245  93.9800 266.1525 14.30813500576966
SENTINEL-2B             
1 42063U 17013A   26190.86483958 -.00000026  00000+0  67949-5 0  9994
2 42063  98.5682 265.3188 0001212  89.6854 270.4468 14.30814113487886
SENTINEL-2C             
1 60989U 24157A   26190.20051958  .00000052  00000+0  36616-4 0  9991
2 60989  98.5685 264.6704 0000939  97.5512 262.5777 14.30814617 96134
